TRANSPORTER-16 OBJECT CD
1 68491U 26067CD  26107.82073178  .00002492  00000+0  25681-3 0  9992
2 68491  97.7524  67.0036 0001439 243.7559 116.3511 14.91126889  2726
TRANSPORTER-16 OBJECT CE
1 68492U 26067CE  26108.55969520  .00004525  00000+0  46223-3 0  9993
2 68492  97.7531  67.7278 0001721 238.6466 121.4585 14.91082219  2832
TRANSPORTER-16 OBJECT CF
1 68493U 26067CF  26107.82061704  .00002218  00000+0  22925-3 0  9990
2 68493  97.7614  67.0185 0002751 203.7445 156.3647 14.91130076  2728
TRANSPORTER-16 OBJECT CG
1 68494U 26067CG  26107.81730456  .00001476  00000+0  15341-3 0  9996
2 68494  97.7570  67.0157 0001385 174.9724 185.1508 14.91381058  2724
TRANSPORTER-16 OBJECT CH
1 68495U 26067CH  26107.89770163  .00000360  00000+0  43980-4 0  9996
2 68495  97.7566  67.0620 0002327 175.6571 184.4667 14.89025231  2734
TRANSPORTER-16 OBJECT CJ
1 68496U 26067CJ  26107.87768729  .00001067  00000+0  11100-3 0  9993
2 68496  97.7566  67.0899 0002915 117.6098 242.5418 14.91927972  2732
TRANSPORTER-16 OBJECT CK
1 68497U 26067CK  26107.81089772  .00001423  00000+0  14617-3 0  9994
2 68497  97.7549  67.0203 0002692 112.4869 247.6635 14.91908926  2728
TRANSPORTER-16 OBJECT CL
1 68498U 26067CL  26108.62450313  .00001890  00000+0  19563-3 0  9991
2 68498  97.7507  67.7934 0000798 248.3279 111.7855 14.91229995  2840
TRANSPORTER-16 OBJECT CM
1 68499U 26067CM  26107.81711105  .00001074  00000+0  11312-3 0  9999
2 68499  97.7542  67.0108 0000681 147.3687 212.7573 14.91384438  2728
TRANSPORTER-16 OBJECT CN
1 68500U 26067CN  26107.81677875  .00001508  00000+0  15649-3 0  9996
2 68500  97.7577  67.0177 0001404 167.5246 192.6008 14.91426754  2721
TRANSPORTER-16 OBJECT CP
1 68501U 26067CP  26107.81948048  .00001865  00000+0  19312-3 0  9997
2 68501  97.7589  67.0157 0002242 201.7168 158.3956 14.91234325  2720
TRANSPORTER-16 OBJECT CQ
1 68502U 26067CQ  26107.61468577  .00001462  00000+0  15164-3 0  9994
2 68502  97.7583  66.8219 0001593 159.8582 200.2700 14.91494330  2696
TRANSPORTER-16 OBJECT CR
1 68503U 26067CR  26107.82512474  .00001275  00000+0  13542-3 0  9994
2 68503  97.7528  66.9991 0002933 248.7018 111.3887 14.90736805  2722
TRANSPORTER-16 OBJECT CS
1 68504U 26067CS  26107.81281678  .00001503  00000+0  15474-3 0  9993
2 68504  97.7583  67.0241 0002379 134.5890 225.5523 14.91751771  2723
TRANSPORTER-16 OBJECT CT
1 68505U 26067CT  26107.82670131  .00001587  00000+0  16758-3 0  9999
2 68505  97.7568  67.0027 0003844 237.6549 122.4298 14.90636918  2721
STARLINK-37262          
1 68508U 26068A   26107.92710507  .00189571  00000+0  94064-3 0  9992
2 68508  53.1575 312.6896 0000916  66.1337 293.9782 15.80928777  2873
